     2.10           NAVIGATION DATA                         RINEX VERSION / TYPE
SPIDER V4,0,0,3554                      2015 04 15 04:19    PGM / RUN BY / DATE 
   1.4901D-08 -7.4506D-09 -5.9605D-08  1.1921D-07           ION ALPHA           
   1.2493D+05 -1.3107D+05  0.0000D+00 -6.5536D+04           ION BETA            
   -9.313225746155D-10-1.776356839400D-15   405504     1829 DELTA-UTC: A0,A1,T,W
    16                                                      LEAP SECONDS        
                                                            END OF HEADER       
17 15 01 26 22 00  0.0-1.523261889815D-04-2.387423592154D-12 0.000000000000D+00
    1.070000000000D+02-4.406250000000D+00 4.308036594125D-09-1.664103897087D+00
   -1.732259988785D-07 1.002363592852D-02 7.010996341705D-06 5.153706640244D+03
    1.656000000000D+05 2.309679985046D-07-8.056086224328D-01 9.313225746155D-09
    9.712295661013D-01 2.500625000000D+02-2.045417160521D+00-7.942473345679D-09
    2.792973352594D-10 1.000000000000D+00 1.829000000000D+03 0.000000000000D+00
    2.000000000000D+00 0.000000000000D+00-1.071020960808D-08 1.070000000000D+02
    1.656000000000D+05 0.000000000000D+00
18 15 01 26 21 59 44.0 3.751148469746D-04 2.728484105319D-12 0.000000000000D+00
    1.500000000000D+01 1.718750000000D+01 5.418439918969D-09-1.769975045879D-01
    9.089708328247D-07 1.562687009573D-02 1.071952283382D-05 5.153758813858D+03
    1.655840000000D+05-1.043081283569D-07 1.227891209500D+00 1.750886440277D-07
    9.250061048914D-01 1.581562500000D+02-1.994650547236D+00-8.682504493152D-09
   -1.053615319990D-10 1.000000000000D+00 1.829000000000D+03 0.000000000000D+00
    2.000000000000D+00 0.000000000000D+00-1.117587089539D-08 1.500000000000D+01
    1.655840000000D+05 0.000000000000D+00
19 15 01 26 10 00  0.0-4.981183446944D-04-1.477928890381D-12 0.000000000000D+00
    7.600000000000D+01-3.875000000000D+00 4.645193563135D-09-2.498681790937D+00
   -3.650784492493D-07 1.087984465994D-02 6.811693310738D-06 5.153685132980D+03
    1.224000000000D+05 4.656612873077D-08-7.552395512845D-01-2.682209014893D-07
    9.683223046136D-01 2.524375000000D+02 5.166706057475D-01-8.064978906930D-09
    3.971593887098D-10 1.000000000000D+00 1.829000000000D+03 0.000000000000D+00
    2.000000000000D+00 0.000000000000D+00-1.490116119385D-08 7.600000000000D+01
    1.224000000000D+05 0.000000000000D+00
20 15 01 26 16 00  0.0 2.829139120877D-04 4.206412995700D-12 0.000000000000D+00
    6.600000000000D+01 1.534375000000D+01 5.235218036859D-09 2.988201374444D+00
    6.854534149170D-07 5.834024865180D-03 1.113675534725D-05 5.155777276993D+03
    1.440000000000D+05 8.195638656616D-08 1.175311471640D+00-1.322478055954D-07
    9.261960014954D-01 1.431250000000D+02 1.239485603311D+00-8.235343074148D-09
   -1.678641392555D-10 1.000000000000D+00 1.829000000000D+03 0.000000000000D+00
    2.000000000000D+00 0.000000000000D+00-8.381903171539D-09 6.600000000000D+01
    1.440000000000D+05 0.000000000000D+00
21 15 01 27 00 00  0.0-4.099458456039D-04-4.206412995700D-12 0.000000000000D+00
    6.800000000000D+01-5.084375000000D+01 5.249861434464D-09 1.878144162483D+00
   -3.026798367500D-06 2.209979912732D-02 6.914138793945D-06 5.153621929169D+03
    1.728000000000D+05-1.173466444016D-07 1.840875941129D-01-5.569308996201D-07
    9.337065234359D-01 2.340625000000D+02-1.955411527996D+00-8.361062953099D-09
   -4.178745544037D-11 1.000000000000D+00 1.829000000000D+03 0.000000000000D+00
    4.000000000000D+00 0.000000000000D+00-1.164153218269D-08 6.800000000000D+01
    1.728000000000D+05 0.000000000000D+00
22 15 01 26 08 00  0.0 3.113690763712D-04 4.206412995700D-12 0.000000000000D+00
    5.700000000000D+01 1.175000000000D+01 5.164500826993D-09-1.729051333105D+00
    5.159527063370D-07 7.404742063954D-03 1.135282218456D-05 5.153707315445D+03
    1.152000000000D+05 2.048909664154D-07 1.229720367658D+00-7.450580596924D-08
    9.228161413964D-01 1.394687500000D+02-2.069822219695D+00-8.209984692087D-09
   -1.832219237441D-10 1.000000000000D+00 1.829000000000D+03 0.000000000000D+00
    2.800000000000D+00 0.000000000000D+00-1.769512891769D-08 5.700000000000D+01
    1.152000000000D+05 0.000000000000D+00
23 15 01 26 14 00  0.0-8.439691737294D-05-2.614797267597D-12 0.000000000000D+00
    1.700000000000D+01 7.896875000000D+01 4.928776942137D-09-8.449389906662D-01
    4.021450877190D-06 9.735965984873D-03 6.433576345444D-06 5.153672206879D+03
    1.368000000000D+05 2.719461917877D-07 2.298429989258D+00 7.450580596924D-09
    9.493130724828D-01 2.478125000000D+02-2.715608542922D+00-8.433922893403D-09
    3.607293283525D-11 1.000000000000D+00 1.829000000000D+03 0.000000000000D+00
    2.000000000000D+00 0.000000000000D+00-2.002343535423D-08 1.700000000000D+01
    1.368000000000D+05 0.000000000000D+00
24 15 01 26 23 59 44.0-4.242779687047D-05-5.684341886081D-13 0.000000000000D+00
    1.600000000000D+01-9.062500000000D-01 4.859130875445D-09-2.527888948927D+00
   -1.229345798492D-07 2.959778532386D-03 5.021691322327D-06 5.153689626694D+03
    1.727840000000D+05-3.725290298462D-08-2.958420348802D+00-1.229345798492D-07
    9.549479330259D-01 2.800625000000D+02 2.596421926938D-01-8.380348859305D-09
   -1.660783455204D-10 1.000000000000D+00 1.829000000000D+03 0.000000000000D+00
    2.000000000000D+00 0.000000000000D+00 2.328306436539D-09 1.600000000000D+01
    1.727840000000D+05 0.000000000000D+00
25 15 01 27 00 00  0.0 5.960464477539D-07-2.614797267597D-12 0.000000000000D+00
    3.800000000000D+01-2.387500000000D+01 4.091599059564D-09 1.739321607578D+00
   -1.292675733566D-06 4.077798104845D-03 8.776783943176D-06 5.153735235214D+03
    1.728000000000D+05-1.136213541031D-07-1.898297323406D+00 5.774199962616D-08
    9.775977757742D-01 2.190000000000D+02 6.579279171558D-01-7.921044264947D-09
   -7.857470230022D-11 1.000000000000D+00 1.829000000000D+03 0.000000000000D+00
    2.000000000000D+00 0.000000000000D+00 5.122274160385D-09 3.800000000000D+01
    1.728000000000D+05 0.000000000000D+00
27 15 01 26 08 00  0.0 4.697218537331D-05 2.614797267597D-12 0.000000000000D+00
    2.600000000000D+01 3.093750000000D+00 4.669837405658D-09-2.678730063425D+00
    1.769512891769D-07 1.880579511635D-03 6.997957825661D-06 5.153682552338D+03
    1.152000000000D+05-5.587935447693D-08-8.522473695124D-01-7.823109626770D-08
    9.660341222616D-01 2.483750000000D+02 1.537132761921D-01-8.141410212659D-09
    3.207276388917D-10 1.000000000000D+00 1.829000000000D+03 0.000000000000D+00
    2.000000000000D+00 0.000000000000D+00 1.862645149231D-09 2.600000000000D+01
    1.152000000000D+05 0.000000000000D+00
28 15 01 26 20 00  0.0 4.151980392635D-04 2.614797267597D-12 0.000000000000D+00
    8.700000000000D+01-1.506250000000D+01 3.666224213106D-09-1.925660120593D+00
   -7.394701242447D-07 1.973699021619D-02 9.059906005859D-06 5.153690353394D+03
    1.584000000000D+05 3.837049007416D-07-1.828798360107D+00 2.197921276093D-07
    9.881417973293D-01 2.165000000000D+02-1.676410458436D+00-7.496383958028D-09
   -4.964492358872D-11 1.000000000000D+00 1.829000000000D+03 0.000000000000D+00
    2.800000000000D+00 0.000000000000D+00-1.117587089539D-08 8.700000000000D+01
    1.584000000000D+05 0.000000000000D+00
29 15 01 27 00 00  0.0 5.883788689971D-04 2.273736754432D-12 0.000000000000D+00
    1.020000000000D+02-1.156250000000D+00 4.323394531269D-09 2.215797188824D+00
   -1.527369022369D-07 1.278005423956D-03 7.193535566330D-06 5.153563781738D+03
    1.728000000000D+05-4.656612873077D-08-7.964094541533D-01 8.009374141693D-08
    9.720448474210D-01 2.467500000000D+02-8.639627510364D-01-7.982475125345D-09
    2.482246352908D-10 1.000000000000D+00 1.829000000000D+03 0.000000000000D+00
    2.000000000000D+00 0.000000000000D+00-9.778887033463D-09 1.020000000000D+02
    1.728000000000D+05 0.000000000000D+00
30 15 01 26 18 00  0.0-8.614966645837D-05 5.684341886081D-13 0.000000000000D+00
    1.180000000000D+02-2.162500000000D+01 4.669480357933D-09-2.926864809382D-01
   -1.247972249985D-06 9.780798573047D-04 5.623325705528D-06 5.153617071152D+03
    1.512000000000D+05-3.725290298462D-08-2.868454219455D+00-1.862645149231D-08
    9.573933220176D-01 2.696562500000D+02 3.074124521946D+00-8.332133205613D-09
   -3.460858544191D-10 1.000000000000D+00 1.829000000000D+03 0.000000000000D+00
    2.800000000000D+00 0.000000000000D+00 3.259629011154D-09 1.180000000000D+02
    1.512000000000D+05 0.000000000000D+00
31 15 01 27 00 00  0.0 3.246502019465D-04-7.958078640513D-13 0.000000000000D+00
    2.100000000000D+01-8.625000000000D+00 4.447328283419D-09 2.802370859732D+00
   -2.626329660416D-07 8.316207909957D-03 5.269423127174D-06 5.153718633652D+03
    1.728000000000D+05-7.823109626770D-08-2.912429494493D+00 2.123415470123D-07
    9.766061016441D-01 2.875312500000D+02-5.645446481678D-01-8.108552052022D-09
   -2.217949574002D-10 1.000000000000D+00 1.829000000000D+03 0.000000000000D+00
    2.000000000000D+00 0.000000000000D+00-1.350417733192D-08 2.100000000000D+01
    1.728000000000D+05 0.000000000000D+00
32 15 01 26 12 00  0.0-2.386854030192D-04 8.867573342286D-12 0.000000000000D+00
    2.300000000000D+01 2.903125000000D+01 4.642693340884D-09-2.930658653353D+00
    1.313164830208D-06 1.134370395448D-02 1.190230250359D-05 5.153591051102D+03
    1.296000000000D+05-2.086162567139D-07 1.327620864349D+00-1.862645149231D-08
    9.468547937199D-01 1.385312500000D+02 1.132822171733D-02-7.919973121773D-09
   -1.732215065831D-10 1.000000000000D+00 1.829000000000D+03 0.000000000000D+00
    2.000000000000D+00 0.000000000000D+00-3.725290298462D-09 2.300000000000D+01
    1.296000000000D+05 0.000000000000D+00
